HIMAWARI-8              
1 40267U 14060A   23229.81238003 -.00000277  00000+0  00000+0 0  9998
2 40267   0.0371 289.7028 0000649 243.3049 226.0322  1.00272303 32495
